NORAD_CAT_ID,OBJECT_NAME,OBJECT_TYPE,EPOCH,MEAN_MOTION,ECCENTRICITY,INCLINATION,RA_OF_ASC_NODE,ARG_OF_PERICENTER,MEAN_ANOMALY,BSTAR,MEAN_MOTION_DOT,MEAN_MOTION_DDOT,TLE_LINE0,TLE_LINE1,TLE_LINE2,SEMIMAJOR_AXIS,PERIOD,APOGEE,PERIGEE,DECAYED
54160.0,STARLINK-5233,PAYLOAD,2024-03-12 19:15:42,15.0883371,9.95e-05,53.2184,352.2118,92.6115,267.4992,0.00010501,1.384e-05,0.0,0 STARLINK-5233,1 54160U 22141D   24072.80257866  .00001384  00000-0  10501-3 0  9999,2 54160  53.2184 352.2118 0000995  92.6115 267.4992 15.08833710 76615,6917.9,95.438,540.453,539.076,0.0
54160.0,STARLINK-5233,PAYLOAD,2024-03-13 11:09:33,15.08846733,0.0001013,53.2184,349.2462,110.7025,249.4076,0.00016712,2.373e-05,0.0,0 STARLINK-5233,1 54160U 22141D   24073.46496926  .00002373  00000-0  16712-3 0  9993,2 54160  53.2184 349.2462 0001013 110.7025 249.4076 15.08846733 76710,6917.86,95.437,540.426,539.024,0.0
54160.0,STARLINK-5233,PAYLOAD,2024-03-13 19:06:30,15.0882546,0.0001107,53.2181,347.7524,87.2133,272.8986,-4.186e-05,-9.54e-06,0.0,0 STARLINK-5233,1 54160U 22141D   24073.79619074 -.00000954  00000-0 -41860-4 0  9998,2 54160  53.2181 347.7524 0001107  87.2133 272.8986 15.08825460 76760,6917.925,95.438,540.556,539.024,0.0
54160.0,STARLINK-5233,PAYLOAD,2024-03-13 22:17:16,15.08831216,0.0001335,53.2187,347.161,98.1566,261.9578,1.3277e-05,-7.7e-07,0.0,0 STARLINK-5233,1 54160U 22141D   24073.92866652 -.00000077  00000-0  13277-4 0  9995,2 54160  53.2187 347.1610 0001335  98.1566 261.9578 15.08831216 76784,6917.907,95.438,540.696,538.849,0.0
54160.0,STARLINK-5233,PAYLOAD,2024-03-14 03:03:25,15.0883835,0.0001229,53.2182,346.2649,91.6958,268.4175,6.6117e-05,7.65e-06,0.0,0 STARLINK-5233,1 54160U 22141D   24074.12738140  .00000765  00000-0  66117-4 0  9992,2 54160  53.2182 346.2649 0001229  91.6958 268.4175 15.08838350 76811,6917.885,95.438,540.601,538.9,0.0
54160.0,STARLINK-5233,PAYLOAD,2024-03-14 22:08:03,15.08837349,0.0001365,53.2188,342.6966,87.5947,272.5201,2.5384e-05,1.16e-06,0.0,0 STARLINK-5233,1 54160U 22141D   24074.92226450  .00000116  00000-0  25384-4 0  9997,2 54160  53.2188 342.6966 0001365  87.5947 272.5201 15.08837349 76938,6917.888,95.438,540.698,538.809,0.0
54160.0,STARLINK-5233,PAYLOAD,2024-03-15 21:58:51,15.08814295,0.0001254,53.2178,338.2361,89.0628,271.0508,0.0004013,6.1e-05,0.0,0 STARLINK-5233,1 54160U 22141D   24075.91587060  .00006100  00000-0  40130-3 0  9998,2 54160  53.2178 338.2361 0001254  89.0628 271.0508 15.08814295 77083,6917.959,95.439,540.691,538.956,0.0
54160.0,STARLINK-5233,PAYLOAD,2024-03-16 01:09:36,15.08840952,0.0001326,53.2178,337.6427,89.3837,270.7307,7.1752e-05,8.54e-06,0.0,0 STARLINK-5233,1 54160U 22141D   24076.04834190  .00000854  00000-0  71752-4 0  9997,2 54160  53.2178 337.6427 0001326  89.3837 270.7307 15.08840952 77109,6917.877,95.437,540.66,538.825,0.0
54160.0,STARLINK-5233,PAYLOAD,2024-03-16 21:49:37,15.08838644,0.0001339,53.2175,333.7773,81.9608,278.1536,5.8006e-05,6.35e-06,0.0,0 STARLINK-5233,1 54160U 22141D   24076.90946472  .00000635  00000-0  58006-4 0  9993,2 54160  53.2175 333.7773 0001339  81.9608 278.1536 15.08838644 77230,6917.885,95.438,540.676,538.823,0.0
54160.0,STARLINK-5233,PAYLOAD,2024-03-16 23:25:00,15.08839248,0.0001382,53.2174,333.4799,79.4055,280.7093,6.4354e-05,7.36e-06,0.0,0 STARLINK-5233,1 54160U 22141D   24076.97570437  .00000736  00000-0  64354-4 0  9999,2 54160  53.2174 333.4799 0001382  79.4055 280.7093 15.08839248 77249,6917.883,95.438,540.704,538.792,0.0
54160.0,STARLINK-5233,PAYLOAD,2024-03-17 20:05:00,15.08847537,0.00013,53.217,329.6142,92.1706,267.9435,8.301e-05,1.034e-05,0.0,0 STARLINK-5233,1 54160U 22141D   24077.83681600  .00001034  00000-0  83010-4 0  9992,2 54160  53.2170 329.6142 0001300  92.1706 267.9435 15.08847537 77370,6917.857,95.437,540.622,538.823,0.0
54160.0,STARLINK-5233,PAYLOAD,2024-03-17 21:40:23,15.08848451,0.0001349,53.2173,329.3171,87.2107,272.904,9.0003e-05,1.145e-05,0.0,0 STARLINK-5233,1 54160U 22141D   24077.90305529  .00001145  00000-0  90003-4 0  9996,2 54160  53.2173 329.3171 0001349  87.2107 272.9040 15.08848451 77380,6917.855,95.437,540.653,538.786,0.0
54160.0,STARLINK-5233,PAYLOAD,2024-03-18 02:26:33,15.0885134,0.000133,53.217,328.4239,90.756,269.3584,0.00011507,1.544e-05,0.0,0 STARLINK-5233,1 54160U 22141D   24078.10177141  .00001544  00000-0  11507-3 0  9990,2 54160  53.2170 328.4239 0001330  90.7560 269.3584 15.08851340 77412,6917.846,95.437,540.631,538.791,0.0
54160.0,STARLINK-5233,PAYLOAD,2024-03-18 21:31:11,15.08838851,0.0001516,53.2181,324.8569,104.532,255.584,1.7637e-05,-7e-08,0.0,0 STARLINK-5233,1 54160U 22141D   24078.89666086 -.00000007  00000-0  17637-4 0  9992,2 54160  53.2181 324.8569 0001516 104.5320 255.5840 15.08838851 77531,6917.884,95.438,540.798,538.7,0.0
54160.0,STARLINK-5233,PAYLOAD,2024-03-19 02:17:20,15.08838351,0.0001399,53.2173,323.9644,93.3595,266.7557,7.5625e-06,-1.68e-06,0.0,0 STARLINK-5233,1 54160U 22141D   24079.09538187 -.00000168  00000-0  75625-5 0  9995,2 54160  53.2173 323.9644 0001399  93.3595 266.7557 15.08838351 77561,6917.885,95.438,540.718,538.783,0.0
54160.0,STARLINK-5233,PAYLOAD,2024-03-19 21:21:58,15.08845907,0.0001195,53.2166,320.3965,94.4527,265.6602,1.7341e-05,-1.2e-07,0.0,0 STARLINK-5233,1 54160U 22141D   24079.89025563 -.00000012  00000-0  17341-4 0  9990,2 54160  53.2166 320.3965 0001195  94.4527 265.6602 15.08845907 77688,6917.862,95.437,540.554,538.901,0.0
54160.0,STARLINK-5233,PAYLOAD,2024-03-19 22:57:21,15.08846655,0.000143,53.2173,320.0997,106.1902,253.9247,2.875e-05,1.7e-06,0.0,0 STARLINK-5233,1 54160U 22141D   24079.95649422  .00000170  00000-0  28750-4 0  9993,2 54160  53.2173 320.0997 0001430 106.1902 253.9247 15.08846655 77695,6917.86,95.437,540.714,538.736,0.0
54160.0,STARLINK-5233,PAYLOAD,2024-03-20 21:12:46,15.08832255,0.0001283,53.2169,315.9362,109.4683,250.6448,4.5343e-06,-2.16e-06,0.0,0 STARLINK-5233,1 54160U 22141D   24080.88386587 -.00000216  00000-0  45343-5 0  9997,2 54160  53.2169 315.9362 0001283 109.4683 250.6448 15.08832255 77831,6917.904,95.438,540.657,538.881,0.0
54160.0,STARLINK-5233,PAYLOAD,2024-03-20 22:48:09,15.0883077,0.0001403,53.2175,315.6387,113.73,246.3839,-3.0603e-05,-7.75e-06,0.0,0 STARLINK-5233,1 54160U 22141D   24080.95010834 -.00000775  00000-0 -30603-4 0  9997,2 54160  53.2175 315.6387 0001403 113.7300 246.3839 15.08830770 77847,6917.909,95.438,540.744,538.803,0.0
54160.0,STARLINK-5233,PAYLOAD,2024-03-21 08:20:28,15.08831348,0.0001154,53.2166,313.8541,83.1902,276.9222,2.1084e-06,-2.54e-06,0.0,0 STARLINK-5233,1 54160U 22141D   24081.34754998 -.00000254  00000-0  21084-5 0  9992,2 54160  53.2166 313.8541 0001154  83.1902 276.9222 15.08831348 77904,6917.907,95.438,540.57,538.974,0.0
54160.0,STARLINK-5233,PAYLOAD,2024-03-21 21:03:33,15.08835425,0.0001419,53.2166,311.4752,98.7134,261.4019,3.0102e-05,1.91e-06,0.0,0 STARLINK-5233,1 54160U 22141D   24081.87746932  .00000191  00000-0  30102-4 0  9998,2 54160  53.2166 311.4752 0001419  98.7134 261.4019 15.08835425 77986,6917.894,95.438,540.741,538.778,0.0
54160.0,STARLINK-5233,PAYLOAD,2024-03-22 14:32:47,15.08834799,0.0001282,53.217,308.2042,73.2256,286.8877,0.00014785,2.066e-05,0.0,0 STARLINK-5233,1 54160U 22141D   24082.60610839  .00002066  00000-0  14785-3 0  9997,2 54160  53.2170 308.2042 0001282  73.2256 286.8877 15.08834799 78097,6917.896,95.438,540.648,538.874,0.0
54160.0,STARLINK-5233,PAYLOAD,2024-03-22 20:54:20,15.08834448,0.000129,53.2168,307.0145,71.0564,289.0567,0.00013733,1.898e-05,0.0,0 STARLINK-5233,1 54160U 22141D   24082.87107069  .00001898  00000-0  13733-3 0  9996,2 54160  53.2168 307.0145 0001290  71.0564 289.0567 15.08834448 78139,6917.897,95.438,540.655,538.87,0.0
54160.0,STARLINK-5233,PAYLOAD,2024-03-22 22:29:43,15.08834219,0.000133,53.2173,306.7176,75.8362,284.2778,0.00013861,1.918e-05,0.0,0 STARLINK-5233,1 54160U 22141D   24082.93731130  .00001918  00000-0  13861-3 0  9990,2 54160  53.2173 306.7176 0001330  75.8362 284.2778 15.08834219 78146,6917.898,95.438,540.683,538.843,0.0
54160.0,STARLINK-5233,PAYLOAD,2024-03-23 20:45:07,15.0884417,0.0001359,53.2172,302.5532,88.1914,271.9233,9.1364e-05,1.167e-05,0.0,0 STARLINK-5233,1 54160U 22141D   24083.86466842  .00001167  00000-0  91364-4 0  9999,2 54160  53.2172 302.5532 0001359  88.1914 271.9233 15.08844170 78287,6917.868,95.437,540.673,538.793,0.0
54160.0,STARLINK-5233,PAYLOAD,2024-03-23 23:55:53,15.08849635,0.0001433,53.2175,301.958,87.3119,272.8037,0.00013796,1.909e-05,0.0,0 STARLINK-5233,1 54160U 22141D   24083.99714360  .00001909  00000-0  13796-3 0  9990,2 54160  53.2175 301.9580 0001433  87.3119 272.8037 15.08849635 78303,6917.851,95.437,540.707,538.725,0.0
54160.0,STARLINK-5233,PAYLOAD,2024-03-24 14:14:23,15.08817471,0.0001024,53.217,299.282,100.8806,259.2301,-0.00012248,-2.235e-05,0.0,0 STARLINK-5233,1 54160U 22141D   24084.59332945 -.00002235  00000-0 -12248-3 0  9998,2 54160  53.2170 299.2820 0001024 100.8806 259.2301 15.08817471 78399,6917.949,95.439,540.523,539.106,0.0
54160.0,STARLINK-5233,PAYLOAD,2024-03-24 20:35:54,15.08836384,0.0001455,53.2159,298.0956,94.1847,265.9311,9.5966e-05,1.24e-05,0.0,0 STARLINK-5233,1 54160U 22141D   24084.85827485  .00001240  00000-0  95966-4 0  9997,2 54160  53.2159 298.0956 0001455  94.1847 265.9311 15.08836384 78435,6917.891,95.438,540.763,538.75,0.0
54160.0,STARLINK-5233,PAYLOAD,2024-03-25 07:43:36,15.08847312,0.0001382,53.2175,296.0116,108.8079,251.3063,0.00015375,2.16e-05,0.0,0 STARLINK-5233,1 54160U 22141D   24085.32194639  .00002160  00000-0  15375-3 0  9995,2 54160  53.2175 296.0116 0001382 108.8079 251.3063 15.08847312 78502,6917.858,95.437,540.679,538.767,0.0
54160.0,STARLINK-5233,PAYLOAD,2024-03-25 20:26:41,15.08844623,0.0001618,53.2168,293.6306,86.8745,273.2432,5.799e-05,6.35e-06,0.0,0 STARLINK-5233,1 54160U 22141D   24085.85187045  .00000635  00000-0  57990-4 0  9991,2 54160  53.2168 293.6306 0001618  86.8745 273.2432 15.08844623 78588,6917.866,95.437,540.851,538.612,0.0
